STARLINK-2186
1 18561C 21041J   21326.11179493 -.00023925  00000-0 -16027-2 0  3266
2 18561  53.0575 303.2338 0002733  46.4601  80.0603 15.06426494    18
